HAWK-8A                 
1 59443U 24066B   26068.40724718  .00002325  00000+0  20899-3 0  9990
2 59443  45.5937  72.3645 0004214 254.4969 105.5447 14.98766556104869
STARLINK-34632          
1 64792U 25150C   26068.61212456  .00003352  00000+0  28859-3 0  9997
2 64792  70.0018 134.5967 0003624 272.7438  87.3306 14.98333403 36508
